[{"OBJECT_NAME":"STARLETTE","OBJECT_ID":"1975-010A","EPOCH":"2026-03-02T19:42:43.611840","MEAN_MOTION":13.82349049,"ECCENTRICITY":0.0205549,"INCLINATION":49.8226,"RA_OF_ASC_NODE":164.4418,"ARG_OF_PERICENTER":71.6547,"MEAN_ANOMALY":290.6584,"EPHEMERIS_TYPE":0,"CLASSIFICATION_TYPE":"U","NORAD_CAT_ID":7646,"ELEMENT_SET_NO":999,"REV_AT_EPOCH":57982,"BSTAR":-9.0258e-7,"MEAN_MOTION_DOT":-1.47e-6,"MEAN_MOTION_DDOT":0},{"OBJECT_NAME":"LAGEOS 1","OBJECT_ID":"1976-039A","EPOCH":"2026-03-02T10:29:25.050336","MEAN_MOTION":6.38664864,"ECCENTRICITY":0.00446587,"INCLINATION":109.8189,"RA_OF_ASC_NODE":142.7985,"ARG_OF_PERICENTER":325.1413,"MEAN_ANOMALY":36.997,"EPHEMERIS_TYPE":0,"CLASSIFICATION_TYPE":"U","NORAD_CAT_ID":8820,"ELEMENT_SET_NO":999,"REV_AT_EPOCH":90632,"BSTAR":0,"MEAN_MOTION_DOT":-3.0e-8,"MEAN_MOTION_DDOT":0},{"OBJECT_NAME":"AJISAI (EGS)","OBJECT_ID":"1986-061A","EPOCH":"2026-03-02T17:45:09.490752","MEAN_MOTION":12.44515513,"ECCENTRICITY":0.0011247,"INCLINATION":50.008,"RA_OF_ASC_NODE":114.7196,"ARG_OF_PERICENTER":269.1149,"MEAN_ANOMALY":209.095,"EPHEMERIS_TYPE":0,"CLASSIFICATION_TYPE":"U","NORAD_CAT_ID":16908,"ELEMENT_SET_NO":999,"REV_AT_EPOCH":46713,"BSTAR":0.000133,"MEAN_MOTION_DOT":-7.8e-7,"MEAN_MOTION_DDOT":0},{"OBJECT_NAME":"COSMOS 1989 (ETALON 1)","OBJECT_ID":"1989-001C","EPOCH":"2026-03-02T16:55:37.378272","MEAN_MOTION":2.13156013,"ECCENTRICITY":0.0023402,"INCLINATION":64.883,"RA_OF_ASC_NODE":75.836,"ARG_OF_PERICENTER":217.5793,"MEAN_ANOMALY":117.5442,"EPHEMERIS_TYPE":0,"CLASSIFICATION_TYPE":"U","NORAD_CAT_ID":19751,"ELEMENT_SET_NO":999,"REV_AT_EPOCH":28909,"BSTAR":0,"MEAN_MOTION_DOT":2.7e-7,"MEAN_MOTION_DDOT":0},{"OBJECT_NAME":"COSMOS 2024 (ETALON 2)","OBJECT_ID":"1989-039C","EPOCH":"2026-03-02T07:44:38.600736","MEAN_MOTION":2.13204503,"ECCENTRICITY":0.00204655,"INCLINATION":64.9989,"RA_OF_ASC_NODE":314.2194,"ARG_OF_PERICENTER":213.4282,"MEAN_ANOMALY":327.1605,"EPHEMERIS_TYPE":0,"CLASSIFICATION_TYPE":"U","NORAD_CAT_ID":20026,"ELEMENT_SET_NO":999,"REV_AT_EPOCH":28622,"BSTAR":0,"MEAN_MOTION_DOT":-4.0e-7,"MEAN_MOTION_DDOT":0},{"OBJECT_NAME":"LAGEOS 2","OBJECT_ID":"1992-070B","EPOCH":"2026-03-02T04:10:27.422400","MEAN_MOTION":6.47293311,"ECCENTRICITY":0.01377834,"INCLINATION":52.6801,"RA_OF_ASC_NODE":334.2909,"ARG_OF_PERICENTER":140.5395,"MEAN_ANOMALY":13.7441,"EPHEMERIS_TYPE":0,"CLASSIFICATION_TYPE":"U","NORAD_CAT_ID":22195,"ELEMENT_SET_NO":999,"REV_AT_EPOCH":78849,"BSTAR":0,"MEAN_MOTION_DOT":-9.0e-8,"MEAN_MOTION_DDOT":0},{"OBJECT_NAME":"STELLA","OBJECT_ID":"1993-061B","EPOCH":"2026-03-02T19:13:18.960096","MEAN_MOTION":14.27467263,"ECCENTRICITY":0.000636,"INCLINATION":98.7857,"RA_OF_ASC_NODE":125.6127,"ARG_OF_PERICENTER":176.9856,"MEAN_ANOMALY":302.2494,"EPHEMERIS_TYPE":0,"CLASSIFICATION_TYPE":"U","NORAD_CAT_ID":22824,"ELEMENT_SET_NO":999,"REV_AT_EPOCH":68959,"BSTAR":9.2404e-6,"MEAN_MOTION_DOT":-2.2e-7,"MEAN_MOTION_DDOT":0},{"OBJECT_NAME":"LARETS","OBJECT_ID":"2003-042F","EPOCH":"2026-03-02T18:11:41.555904","MEAN_MOTION":14.63846319,"ECCENTRICITY":0.0012513,"INCLINATION":98.4003,"RA_OF_ASC_NODE":221.8033,"ARG_OF_PERICENTER":14.0956,"MEAN_ANOMALY":346.0592,"EPHEMERIS_TYPE":0,"CLASSIFICATION_TYPE":"U","NORAD_CAT_ID":27944,"ELEMENT_SET_NO":999,"REV_AT_EPOCH":19779,"BSTAR":2.5715e-5,"MEAN_MOTION_DOT":8.4e-7,"MEAN_MOTION_DDOT":0},{"OBJECT_NAME":"LARES","OBJECT_ID":"2012-006A","EPOCH":"2026-03-02T15:35:52.932480","MEAN_MOTION":12.54932186,"ECCENTRICITY":0.0007623,"INCLINATION":69.4884,"RA_OF_ASC_NODE":114.2245,"ARG_OF_PERICENTER":157.8629,"MEAN_ANOMALY":202.2728,"EPHEMERIS_TYPE":0,"CLASSIFICATION_TYPE":"U","NORAD_CAT_ID":38077,"ELEMENT_SET_NO":999,"REV_AT_EPOCH":64370,"BSTAR":1.894e-5,"MEAN_MOTION_DOT":-3.5e-7,"MEAN_MOTION_DDOT":0},{"OBJECT_NAME":"LARES-2","OBJECT_ID":"2022-080A","EPOCH":"2026-02-20T17:16:46.407648","MEAN_MOTION":6.38965205,"ECCENTRICITY":0.00051588,"INCLINATION":70.178,"RA_OF_ASC_NODE":345.2672,"ARG_OF_PERICENTER":0.959,"MEAN_ANOMALY":359.1035,"EPHEMERIS_TYPE":0,"CLASSIFICATION_TYPE":"U","NORAD_CAT_ID":53105,"ELEMENT_SET_NO":999,"REV_AT_EPOCH":8422,"BSTAR":0,"MEAN_MOTION_DOT":-1.9e-7,"MEAN_MOTION_DDOT":0}]
